ONEWEB-0555             
1 56057U 23043M   25158.84622875  .00000123  00000+0  28889-3 0  9991
2 56057  87.9032 303.3814 0001934  81.1132 279.0218 13.16596317109707
ONEWEB-0557             
1 56058U 23043N   25159.16447503  .00000068  00000+0  14348-3 0  9994
2 56058  87.9030 303.3408 0001559  66.7088 293.4207 13.16595616110652
ONEWEB-0558             
1 56059U 23043P   25158.97252527  .00000047  00000+0  82384-4 0  9996
2 56059  87.9252 318.6203 0002112 106.3257 253.8109 13.21826204109718
ONEWEB-0559             
1 56060U 23043Q   25158.88577377 -.00000020  00000+0 -80574-4 0  9993
2 56060  87.9249 318.6299 0001725 108.7337 251.3984 13.21827176108807
ONEWEB-0566             
1 56061U 23043R   25158.87947917  .00000068  00000+0  13280-3 0  9993
2 56061  87.9249 318.6302 0002042 110.7908 249.3444 13.21826636108788
ONEWEB-0568             
1 56062U 23043S   25158.87790368 -.00000027  00000+0 -10451-3 0  9994
2 56062  87.9039 303.3662 0001903  89.4396 270.6953 13.16596162109723
ONEWEB-0574             
1 56063U 23043T   25159.17594526  .00000050  00000+0  89312-4 0  9994
2 56063  87.9249 318.5594 0001596  92.5223 267.6094 13.21827145109772
ONEWEB-0575             
1 56064U 23043U   25159.09955952  .00000050  00000+0  96899-4 0  9998
2 56064  87.9034 303.3333 0001485  86.2270 273.9031 13.16596258110659
ONEWEB-0576             
1 56065U 23043V   25158.85256045  .00000124  00000+0  28998-3 0  9995
2 56065  87.9034 303.3732 0001791  90.9985 269.1351 13.16596440109707
ONEWEB-0577             
1 56066U 23043W   25159.39087776  .00000131  00000+0  30792-3 0  9992
2 56066  87.9030 303.2654 0001304  83.0039 277.1240 13.16596318110712
ONEWEB-0578             
1 56067U 23043X   25158.86054692  .00000078  00000+0  15682-3 0  9996
2 56067  87.9252 318.6325 0001828  90.6334 269.5009 13.21826151108786
ONEWEB-0579             
1 56068U 23043Y   25158.85108421  .00000098  00000+0  20637-3 0  9994
2 56068  87.9247 318.6206 0001753 104.4071 255.7257 13.21825529108799
ONEWEB-0581             
1 56069U 23043Z   25159.39721164  .00000084  00000+0  18553-3 0  9999
2 56069  87.9030 303.2941 0001326  98.4200 261.7081 13.16596085110687
ONEWEB-0609             
1 56070U 23043AA  25158.98168599 -.00000195  00000+0 -55272-3 0  9996
2 56070  87.9044 333.8100 0001912  94.6185 265.5164 13.15547707108149
ONEWEB-0613             
1 56071U 23043AB  25158.97693448 -.00000169  00000+0 -48360-3 0  9993
2 56071  87.9048 333.8213 0001740 100.5628 259.5698 13.15549268108146
ONEWEB-0630             
1 56072U 23043AC  25159.04823724 -.00000059  00000+0 -19199-3 0  9991
2 56072  87.9046 333.7851 0001856 102.7474 257.3864 13.15547049108149
ONEWEB-0632             
1 56073U 23043AD  25159.49983990 -.00000045  00000+0 -15413-3 0  9993
2 56073  87.9044 333.7151 0001576  94.3573 265.7738 13.15547675108201
ONEWEB-0633             
1 56074U 23043AE  25159.03715720  .00000002  00000+0 -27667-4 0  9995
2 56074  87.9042 333.7754 0002034 104.1496 255.9861 13.15548250108122
ONEWEB-0634             
1 56075U 23043AF  25159.17501125  .00000101  00000+0  23404-3 0  9996
2 56075  87.9050 333.7825 0002162  92.0958 268.0420 13.15549874108131
ONEWEB-0635             
1 56076U 23043AG  25159.01814758  .00000143  00000+0  34601-3 0  9996
2 56076  87.9019 333.8021 0001490  90.0607 270.0694 13.15547688108146
ONEWEB-0636             
1 56077U 23043AH  25158.93416318  .00000158  00000+0  38526-3 0  9993
2 56077  87.9028 333.8272 0001528  91.4193 268.7113 13.15549841107201
ONEWEB-0637             
1 56078U 23043AJ  25159.00389677  .00000219  00000+0  54865-3 0  9992
2 56078  87.9048 333.8152 0001700  81.4738 278.6585 13.15547365108143
ONEWEB-0647             
1 56079U 23043AK  25158.99913583  .00000131  00000+0  31512-3 0  9996
2 56079  87.9045 333.8259 0001582  96.6127 263.5184 13.15549946107220
ONEWEB-0651             
1 56080U 23043AL  25158.99437082  .00000063  00000+0  13446-3 0  9993
2 56080  87.9049 333.8146 0001550  84.9917 275.1390 13.15550540107223
ONEWEB-0718             
1 56081U 23043AM  25158.91356459  .00000018  00000+0  14363-4 0  9994
2 56081  87.9048 333.8139 0002252  89.7696 270.3692 13.15547325108132
ONEWEB-0561             
1 56710U 23068A   25159.03498899  .00000086  00000+0  17960-3 0  9999
2 56710  87.9247 348.9810 0001264  90.5716 269.5562 13.20771697100810
ONEWEB-0668             
1 56711U 23068B   25158.94360997  .00000008  00000+0 -11541-4 0  9991
2 56711  87.9041 303.3439 0002282  88.4825 271.6568 13.16596045103239
ONEWEB-0676             
1 56712U 23068C   25158.84780905  .00000118  00000+0  27511-3 0  9990
2 56712  87.9032 303.3909 0001350 102.3164 257.8118 13.16592636102440
ONEWEB-0677             
1 56713U 23068D   25159.25121505  .00000153  00000+0  34555-3 0  9997
2 56713  87.9250 348.9139 0001624  81.2523 278.8794 13.20772419101144
ONEWEB-0678             
1 56714U 23068E   25159.03397487  .00000019  00000+0  16702-4 0  9994
2 56714  87.9051 333.7608 0001743 104.1203 256.0121 13.15546766100799
ONEWEB-0679             
1 56715U 23068F   25158.89294768 -.00000091  00000+0 -27130-3 0  9994
2 56715  87.9031 303.3746 0001730  81.1178 279.0149 13.16595771102478
ONEWEB-0680             
1 56716U 23068G   25159.15702228  .00000166  00000+0  37034-3 0  9995
2 56716  87.9230 318.5690 0002250  80.7935 279.3453 13.21826271102389
ONEWEB-0681             
1 56717U 23068H   25159.16726660  .00000118  00000+0  25527-3 0  9994
2 56717  87.9252 318.5905 0000999  75.3746 284.7498 13.21824486102375
ONEWEB-0682             
1 56718U 23068J   25158.90800610 -.00000032  00000+0 -11923-3 0  9996
2 56718  87.9046 333.8168 0002069  79.0778 281.0586 13.15546864100947
ONEWEB-0683             
1 56719U 23068K   25159.00547993  .00000176  00000+0  43474-3 0  9994
2 56719  87.9046 333.7685 0001984  85.6930 274.4427 13.15549591100927
ONEWEB-0684             
1 56720U 23068L   25158.93732379  .00000179  00000+0  44246-3 0  9992
2 56720  87.9020 333.8030 0002658 123.6585 236.4799 13.15550366100049
ONEWEB-0686             
1 56721U 23068M   25158.88265878 -.00000062  00000+0 -19574-3 0  9991
2 56721  87.9029 303.4122 0002144  97.6495 262.4879 13.16596430103161
ONEWEB-0694             
1 56722U 23068N   25158.84939495  .00000121  00000+0  28335-3 0  9990
2 56722  87.9030 303.3369 0002033  87.5040 272.6324 13.16596234102515
ONEWEB-0696             
1 56723U 23068P   25159.04666429 -.00000062  00000+0 -19863-3 0  9990
2 56723  87.9047 333.8127 0001731 103.0196 257.1127 13.15549853100874
ONEWEB-0703             
1 56724U 23068Q   25158.98011667 -.00000045  00000+0 -15290-3 0  9992
2 56724  87.9028 333.8252 0001239 132.0381 228.0855 13.15548446100753
ONEWEB-0721             
1 56725U 23068R   25159.07651825  .00000115  00000+0  24124-3 0  9992
2 56725  86.6819 204.7307 0002029  95.5079 264.6286 13.22437635109196
ONEWEB-0015             
1 61594U 24188A   25159.37898420 -.00000389  00000+0 -11330-2 0  9992
2 61594  87.8864  95.5970 0001788  60.8325 299.2981 13.11417151 33541
ONEWEB-0687             
1 61595U 24188B   25157.27512916 -.00222525  00000+0 -41388+0 0  9994
2 61595  87.8035  80.7936 0006403 152.8736 207.2745 13.40923771 34659
ONEWEB-0688             
1 61596U 24188C   25156.83569195 -.00045142  00000+0 -86868-1 0  9999
2 61596  87.8487  80.8603 0003166 164.9569 195.1669 13.37412822 36304
ONEWEB-0689             
1 61597U 24188D   25159.33660295  .00000421  00000+0  11517-2 0  9990
2 61597  87.8805  95.6063 0002344  74.0372 286.1014 13.11417974 33580
ONEWEB-0690             
1 61598U 24188E   25159.11785287 -.00003184  00000+0 -90220-2 0  9995
2 61598  87.8855  95.5871 0003481  16.6548 343.4694 13.11430735 33718
ONEWEB-0691             
1 61599U 24188F   25158.80758829  .00000481  00000+0  13209-2 0  9990
2 61599  87.8752  95.6900 0001751  68.2817 291.8497 13.11404752 35415
ONEWEB-0692             
1 61600U 24188G   25159.51463497  .00000267  00000+0  71692-3 0  9999
2 61600  87.8831  95.5907 0002902  89.1040 271.0420 13.11413485 33711
ONEWEB-0693             
1 61601U 24188H   25158.48939987 -.00204035  00000+0 -38658+0 0  9999
2 61601  87.8042  80.5619 0003333 139.7582 220.3810 13.39588832 36512
ONEWEB-0695             
1 61602U 24188J   25159.33828520  .00000114  00000+0  28443-3 0  9990
2 61602  87.8841  95.6087 0002653  78.3278 281.8147 13.11421373 33710
ONEWEB-0697             
1 61603U 24188K   25159.29421565 -.00000053  00000+0 -18435-3 0  9998
2 61603  87.8816  95.6212 0002768  90.3133 269.8312 13.11416959 33729
ONEWEB-0698             
1 61604U 24188L   25158.81439278  .00000529  00000+0  14578-2 0  9995
2 61604  87.8829  95.7240 0002443 106.4266 253.7130 13.11419022 35403
ONEWEB-0699             
1 61605U 24188M   25159.14012314 -.00000097  00000+0 -31322-3 0  9990
2 61605  87.8819 110.8388 0002149  93.4988 266.6385 13.10377414 32458
ONEWEB-0700             
1 61606U 24188N   25158.91271416  .00000121  00000+0  30949-3 0  9995
2 61606  87.8747 110.8089 0002774  79.7742 280.3698 13.10376457 34285
ONEWEB-0701             
1 61607U 24188P   25159.15840122  .00000692  00000+0  19461-2 0  9997
2 61607  87.8817 110.8424 0002804  92.8317 267.3131 13.10373924 32657
ONEWEB-0702             
1 61608U 24188Q   25159.31794273 -.00000620  00000+0 -17840-2 0  9993
2 61608  87.8765  95.6133 0002966  85.1585 274.9882 13.11420769 33567
ONEWEB-0704             
1 61609U 24188R   25159.14677394  .00000156  00000+0  41028-3 0  9997
2 61609  87.8850 110.7717 0003063  84.5646 275.5830 13.10375948 32454
ONEWEB-0705             
1 61610U 24188S   25159.30445489 -.00000331  00000+0 -98389-3 0  9994
2 61610  87.8809 110.8021 0002991  65.0553 295.0885 13.10376325 32636
ONEWEB-0706             
1 61611U 24188T   25158.90192208 -.00000502  00000+0 -14733-2 0  9998
2 61611  87.8833 110.8971 0002449  80.4187 279.7217 13.10376044 32478
